[
  {
    "flag": "",
    "nameEN": "Guatemala",
    "namePL": "Gwatemala",
    "cca2": "GT"
  },
  {
    "flag": "葛",
    "nameEN": "Singapore",
    "namePL": "Singapur",
    "cca2": "SG"
  },
  {
    "flag": "ю",
    "nameEN": "Bosnia and Herzegovina",
    "namePL": "Bonia i Hercegowina",
    "cca2": "BA"
  },
  {
    "flag": "拆",
    "nameEN": "Maldives",
    "namePL": "Malediwy",
    "cca2": "MV"
  },
  {
    "flag": "别",
    "nameEN": "Latvia",
    "namePL": "otwa",
    "cca2": "LV"
  },
  {
    "flag": "",
    "nameEN": "Greece",
    "namePL": "Grecja",
    "cca2": "GR"
  },
  {
    "flag": "",
    "nameEN": "Cocos (Keeling) Islands",
    "namePL": "Wyspy Kokosowe (Keelinga)",
    "cca2": "CC"
  },
  {
    "flag": "攫",
    "nameEN": "Mayotte",
    "namePL": "Majotta",
    "cca2": "YT"
  },
  {
    "flag": "",
    "nameEN": "Jordan",
    "namePL": "Jordania",
    "cca2": "JO"
  },
  {
    "flag": "ю",
    "nameEN": "Bangladesh",
    "namePL": "Bangladesz",
    "cca2": "BD"
  },
  {
    "flag": "",
    "nameEN": "American Samoa",
    "namePL": "Samoa Amerykaskie",
    "cca2": "AS"
  },
  {
    "flag": "",
    "nameEN": "Italy",
    "namePL": "Wochy",
    "cca2": "IT"
  },
  {
    "flag": "",
    "nameEN": "Algeria",
    "namePL": "Algieria",
    "cca2": "DZ"
  },
  {
    "flag": "",
    "nameEN": "France",
    "namePL": "Francja",
    "cca2": "FR"
  },
  {
    "flag": "ю",
    "nameEN": "Bhutan",
    "namePL": "Bhutan",
    "cca2": "BT"
  },
  {
    "flag": "葛",
    "nameEN": "S茫o Tom茅 and Pr铆ncipe",
    "namePL": "Wyspy witego Tomasza i Ksi偶ca",
    "cca2": "ST"
  },
  {
    "flag": "仇",
    "nameEN": "Nauru",
    "namePL": "Nauru",
    "cca2": "NR"
  },
  {
    "flag": "",
    "nameEN": "Gabon",
    "namePL": "Gabon",
    "cca2": "GA"
  },
  {
    "flag": "仇",
    "nameEN": "New Caledonia",
    "namePL": "Nowa Kaledonia",
    "cca2": "NC"
  },
  {
    "flag": "仇",
    "nameEN": "Norway",
    "namePL": "Norwegia",
    "cca2": "NO"
  },
  {
    "flag": "桂",
    "nameEN": "Tuvalu",
    "namePL": "Tuvalu",
    "cca2": "TV"
  },
  {
    "flag": "",
    "nameEN": "India",
    "namePL": "Indie",
    "cca2": "IN"
  },
  {
    "flag": "梆",
    "nameEN": "Cambodia",
    "namePL": "Kambod偶a",
    "cca2": "KH"
  },
  {
    "flag": "拆",
    "nameEN": "Mauritius",
    "namePL": "Mauritius",
    "cca2": "MU"
  },
  {
    "flag": "",
    "nameEN": "DR Congo",
    "namePL": "DR Konga",
    "cca2": "CD"
  },
  {
    "flag": "葛",
    "nameEN": "San Marino",
    "namePL": "San Marino",
    "cca2": "SM"
  },
  {
    "flag": "叼",
    "nameEN": "Panama",
    "namePL": "Panama",
    "cca2": "PA"
  },
  {
    "flag": "仇",
    "nameEN": "Netherlands",
    "namePL": "Holandia",
    "cca2": "NL"
  },
  {
    "flag": "叼",
    "nameEN": "Puerto Rico",
    "namePL": "Portoryko",
    "cca2": "PR"
  },
  {
    "flag": "仇",
    "nameEN": "Nicaragua",
    "namePL": "Nikaragua",
    "cca2": "NI"
  },
  {
    "flag": "佛",
    "nameEN": "R茅union",
    "namePL": "Zjazd",
    "cca2": "RE"
  },
  {
    "flag": "葛",
    "nameEN": "Sierra Leone",
    "namePL": "Sierra Leone",
    "cca2": "SL"
  },
  {
    "flag": "ю",
    "nameEN": "Barbados",
    "namePL": "Barbados",
    "cca2": "BB"
  },
  {
    "flag": "",
    "nameEN": "Israel",
    "namePL": "Izrael",
    "cca2": "IL"
  },
  {
    "flag": "",
    "nameEN": "Western Sahara",
    "namePL": "Sahara Zachodnia",
    "cca2": "EH"
  },
  {
    "flag": "",
    "nameEN": "Anguilla",
    "namePL": "Anguilla",
    "cca2": "AI"
  },
  {
    "flag": "佛",
    "nameEN": "Rwanda",
    "namePL": "Rwandzie",
    "cca2": "RW"
  },
  {
    "flag": "桂",
    "nameEN": "Turkey",
    "namePL": "Indyk",
    "cca2": "TR"
  },
  {
    "flag": "拆",
    "nameEN": "Marshall Islands",
    "namePL": "Wyspy Marshalla",
    "cca2": "MH"
  },
  {
    "flag": "拆",
    "nameEN": "Mozambique",
    "namePL": "Mozambik",
    "cca2": "MZ"
  },
  {
    "flag": "仇",
    "nameEN": "Nigeria",
    "namePL": "Nigeria",
    "cca2": "NG"
  },
  {
    "flag": "佛",
    "nameEN": "Russia",
    "namePL": "Rosja",
    "cca2": "RU"
  },
  {
    "flag": "",
    "nameEN": "Cuba",
    "namePL": "Kuba",
    "cca2": "CU"
  },
  {
    "flag": "",
    "nameEN": "Jersey",
    "namePL": "Golf",
    "cca2": "JE"
  },
  {
    "flag": "火",
    "nameEN": "British Virgin Islands",
    "namePL": "Brytyjskie Wyspy Dziewicze",
    "cca2": "VG"
  },
  {
    "flag": "",
    "nameEN": "Costa Rica",
    "namePL": "Kostaryka",
    "cca2": "CR"
  },
  {
    "flag": "叼",
    "nameEN": "Saint Pierre and Miquelon",
    "namePL": "Saint-Pierre i Miquelon",
    "cca2": "PM"
  },
  {
    "flag": "葛",
    "nameEN": "El Salvador",
    "namePL": "Salwador",
    "cca2": "SV"
  },
  {
    "flag": "",
    "nameEN": "Cook Islands",
    "namePL": "Wyspy Cooka",
    "cca2": "CK"
  },
  {
    "flag": "仇",
    "nameEN": "Niue",
    "namePL": "Nue",
    "cca2": "NU"
  },
  {
    "flag": "葛",
    "nameEN": "Slovenia",
    "namePL": "Sowenia",
    "cca2": "SI"
  },
  {
    "flag": "叼",
    "nameEN": "Papua New Guinea",
    "namePL": "Papua Nowa Gwinea",
    "cca2": "PG"
  },
  {
    "flag": "",
    "nameEN": "Honduras",
    "namePL": "Honduras",
    "cca2": "HN"
  },
  {
    "flag": "拆",
    "nameEN": "Macau",
    "namePL": "Makau",
    "cca2": "MO"
  },
  {
    "flag": "叼",
    "nameEN": "Portugal",
    "namePL": "Portugalia",
    "cca2": "PT"
  },
  {
    "flag": "桂",
    "nameEN": "Trinidad and Tobago",
    "namePL": "Trynidad i Tobago",
    "cca2": "TT"
  },
  {
    "flag": "",
    "nameEN": "Gambia",
    "namePL": "Gambia",
    "cca2": "GM"
  },
  {
    "flag": "拆",
    "nameEN": "Myanmar",
    "namePL": "Myanmar",
    "cca2": "MM"
  },
  {
    "flag": "",
    "nameEN": "Egypt",
    "namePL": "Egipt",
    "cca2": "EG"
  },
  {
    "flag": "别",
    "nameEN": "Lebanon",
    "namePL": "Liban",
    "cca2": "LB"
  },
  {
    "flag": "梆",
    "nameEN": "Kenya",
    "namePL": "Kenia",
    "cca2": "KE"
  },
  {
    "flag": "",
    "nameEN": "Equatorial Guinea",
    "namePL": "Gwinea R贸wnikowa",
    "cca2": "GQ"
  },
  {
    "flag": "火",
    "nameEN": "United States Virgin Islands",
    "namePL": "Wyspy Dziewicze Stan贸w Zjednoczonych",
    "cca2": "VI"
  },
  {
    "flag": "",
    "nameEN": "Croatia",
    "namePL": "Chorwacja",
    "cca2": "HR"
  },
  {
    "flag": "吼",
    "nameEN": "United States",
    "namePL": "Stany Zjednoczone",
    "cca2": "US"
  },
  {
    "flag": "ю",
    "nameEN": "Caribbean Netherlands",
    "namePL": "Karaibska Holandia",
    "cca2": "BQ"
  },
  {
    "flag": "叼",
    "nameEN": "Philippines",
    "namePL": "Filipiny",
    "cca2": "PH"
  },
  {
    "flag": "梆",
    "nameEN": "Kazakhstan",
    "namePL": "Kazachstan",
    "cca2": "KZ"
  },
  {
    "flag": "金",
    "nameEN": "Kosovo",
    "namePL": "Kosowo",
    "cca2": "XK"
  },
  {
    "flag": "",
    "nameEN": "Argentina",
    "namePL": "Argentyna",
    "cca2": "AR"
  },
  {
    "flag": "桂",
    "nameEN": "Tajikistan",
    "namePL": "Tad偶ykistan",
    "cca2": "TJ"
  },
  {
    "flag": "",
    "nameEN": "Azerbaijan",
    "namePL": "Azerbejd偶an",
    "cca2": "AZ"
  },
  {
    "flag": "佛",
    "nameEN": "Romania",
    "namePL": "Rumunia",
    "cca2": "RO"
  },
  {
    "flag": "",
    "nameEN": "Chile",
    "namePL": "Chile",
    "cca2": "CL"
  },
  {
    "flag": "",
    "nameEN": "Cyprus",
    "namePL": "Cypr",
    "cca2": "CY"
  },
  {
    "flag": "",
    "nameEN": "Cape Verde",
    "namePL": "Wyspy Zielonego Przyldka",
    "cca2": "CV"
  },
  {
    "flag": "ю",
    "nameEN": "Bulgaria",
    "namePL": "Bugaria",
    "cca2": "BG"
  },
  {
    "flag": "吼",
    "nameEN": "Uruguay",
    "namePL": "Urugwaj",
    "cca2": "UY"
  },
  {
    "flag": "拆",
    "nameEN": "North Macedonia",
    "namePL": "Macedonia P贸nocna",
    "cca2": "MK"
  },
  {
    "flag": "",
    "nameEN": "Afghanistan",
    "namePL": "Afganistan",
    "cca2": "AF"
  },
  {
    "flag": "ю",
    "nameEN": "Botswana",
    "namePL": "Botswana",
    "cca2": "BW"
  },
  {
    "flag": "",
    "nameEN": "Antarctica",
    "namePL": "Antarktyda",
    "cca2": "AQ"
  },
  {
    "flag": "",
    "nameEN": "Canada",
    "namePL": "Kanada",
    "cca2": "CA"
  },
  {
    "flag": "拆",
    "nameEN": "Mauritania",
    "namePL": "Mauretania",
    "cca2": "MR"
  },
  {
    "flag": "娥",
    "nameEN": "Qatar",
    "namePL": "Katar",
    "cca2": "QA"
  },
  {
    "flag": "",
    "nameEN": "Spain",
    "namePL": "Hiszpania",
    "cca2": "ES"
  },
  {
    "flag": "攫",
    "nameEN": "Yemen",
    "namePL": "Jemen",
    "cca2": "YE"
  },
  {
    "flag": "葛",
    "nameEN": "Somalia",
    "namePL": "Somali",
    "cca2": "SO"
  },
  {
    "flag": "葛",
    "nameEN": "Sweden",
    "namePL": "Szwecja",
    "cca2": "SE"
  },
  {
    "flag": "别",
    "nameEN": "Liechtenstein",
    "namePL": "Liechtenstein",
    "cca2": "LI"
  },
  {
    "flag": "",
    "nameEN": "South Georgia",
    "namePL": "Georgia Poudniowa",
    "cca2": "GS"
  },
  {
    "flag": "拆",
    "nameEN": "Morocco",
    "namePL": "Maroko",
    "cca2": "MA"
  },
  {
    "flag": "拆",
    "nameEN": "Madagascar",
    "namePL": "Madagaskar",
    "cca2": "MG"
  },
  {
    "flag": "吼",
    "nameEN": "Ukraine",
    "namePL": "Ukraina",
    "cca2": "UA"
  },
  {
    "flag": "",
    "nameEN": "Iran",
    "namePL": "Iran",
    "cca2": "IR"
  },
  {
    "flag": "叼",
    "nameEN": "Poland",
    "namePL": "Polska",
    "cca2": "PL"
  },
  {
    "flag": "桂",
    "nameEN": "Chad",
    "namePL": "Czad",
    "cca2": "TD"
  },
  {
    "flag": "火",
    "nameEN": "Vanuatu",
    "namePL": "Vanuatu",
    "cca2": "VU"
  },
  {
    "flag": "叼",
    "nameEN": "Palau",
    "namePL": "Paaw",
    "cca2": "PW"
  },
  {
    "flag": "叼",
    "nameEN": "Peru",
    "namePL": "Peru",
    "cca2": "PE"
  },
  {
    "flag": "葛",
    "nameEN": "Eswatini",
    "namePL": "Eswatini",
    "cca2": "SZ"
  },
  {
    "flag": "拆",
    "nameEN": "Martinique",
    "namePL": "Martynika",
    "cca2": "MQ"
  },
  {
    "flag": "别",
    "nameEN": "Luxembourg",
    "namePL": "Luksemburg",
    "cca2": "LU"
  },
  {
    "flag": "",
    "nameEN": "Djibouti",
    "namePL": "D偶ibuti",
    "cca2": "DJ"
  },
  {
    "flag": "",
    "nameEN": "Haiti",
    "namePL": "Haiti",
    "cca2": "HT"
  },
  {
    "flag": "葛",
    "nameEN": "Syria",
    "namePL": "Syria",
    "cca2": "SY"
  },
  {
    "flag": "",
    "nameEN": "Gibraltar",
    "namePL": "Gibraltarze",
    "cca2": "GI"
  },
  {
    "flag": "拆",
    "nameEN": "Mexico",
    "namePL": "Meksyk",
    "cca2": "MX"
  },
  {
    "flag": "",
    "nameEN": "Iceland",
    "namePL": "Islandia",
    "cca2": "IS"
  },
  {
    "flag": "",
    "nameEN": "Fiji",
    "namePL": "Fid偶i",
    "cca2": "FJ"
  },
  {
    "flag": "梆",
    "nameEN": "North Korea",
    "namePL": "Korea P贸nocna",
    "cca2": "KP"
  },
  {
    "flag": "葛",
    "nameEN": "Solomon Islands",
    "namePL": "Wyspy Salomona",
    "cca2": "SB"
  },
  {
    "flag": "吼",
    "nameEN": "United States Minor Outlying Islands",
    "namePL": "Stany Zjednoczone Dalekie Wyspy Mniejsze",
    "cca2": "UM"
  },
  {
    "flag": "",
    "nameEN": "Guinea",
    "namePL": "Gwinea",
    "cca2": "GN"
  },
  {
    "flag": "梆",
    "nameEN": "Saint Kitts and Nevis",
    "namePL": "Saint Kitts i Nevis",
    "cca2": "KN"
  },
  {
    "flag": "桂",
    "nameEN": "French Southern and Antarctic Lands",
    "namePL": "Francuskie Ziemie Poudniowe i Antarktyczne",
    "cca2": "TF"
  },
  {
    "flag": "ю",
    "nameEN": "Bahrain",
    "namePL": "Bahrajn",
    "cca2": "BH"
  },
  {
    "flag": "别",
    "nameEN": "Lithuania",
    "namePL": "Litwa",
    "cca2": "LT"
  },
  {
    "flag": "",
    "nameEN": "Georgia",
    "namePL": "Gruzja",
    "cca2": "GE"
  },
  {
    "flag": "佛",
    "nameEN": "Serbia",
    "namePL": "Serbia",
    "cca2": "RS"
  },
  {
    "flag": "",
    "nameEN": "Central African Republic",
    "namePL": "Republika rodkowoafrykaska",
    "cca2": "CF"
  },
  {
    "flag": "拆",
    "nameEN": "Mali",
    "namePL": "Mali",
    "cca2": "ML"
  },
  {
    "flag": "拆",
    "nameEN": "Mongolia",
    "namePL": "Mongolia",
    "cca2": "MN"
  },
  {
    "flag": "",
    "nameEN": "Dominica",
    "namePL": "Dominika",
    "cca2": "DM"
  },
  {
    "flag": "",
    "nameEN": "Greenland",
    "namePL": "Grenlandia",
    "cca2": "GL"
  },
  {
    "flag": "",
    "nameEN": "Ethiopia",
    "namePL": "Etiopia",
    "cca2": "ET"
  },
  {
    "flag": "别",
    "nameEN": "Libya",
    "namePL": "Libia",
    "cca2": "LY"
  },
  {
    "flag": "仇",
    "nameEN": "Namibia",
    "namePL": "Namibia",
    "cca2": "NA"
  },
  {
    "flag": "拆",
    "nameEN": "Moldova",
    "namePL": "Moldova",
    "cca2": "MD"
  },
  {
    "flag": "ю",
    "nameEN": "Bolivia",
    "namePL": "Boliwia",
    "cca2": "BO"
  },
  {
    "flag": "",
    "nameEN": "Dominican Republic",
    "namePL": "Republika Dominikany",
    "cca2": "DO"
  },
  {
    "flag": "",
    "nameEN": "Cura莽ao",
    "namePL": "Cura莽ao",
    "cca2": "CW"
  },
  {
    "flag": "",
    "nameEN": "Indonesia",
    "namePL": "Indonezja",
    "cca2": "ID"
  },
  {
    "flag": "ю",
    "nameEN": "Belarus",
    "namePL": "Biaoru",
    "cca2": "BY"
  },
  {
    "flag": "ю",
    "nameEN": "Bouvet Island",
    "namePL": "Wyspa Bouveta",
    "cca2": "BV"
  },
  {
    "flag": "",
    "nameEN": "Republic of the Congo",
    "namePL": "Republika Konga",
    "cca2": "CG"
  },
  {
    "flag": "别",
    "nameEN": "Liberia",
    "namePL": "Liberia",
    "cca2": "LR"
  },
  {
    "flag": "拆",
    "nameEN": "Malta",
    "namePL": "Malcie",
    "cca2": "MT"
  },
  {
    "flag": "拆",
    "nameEN": "Saint Martin",
    "namePL": "wity Marcin",
    "cca2": "MF"
  },
  {
    "flag": "筐",
    "nameEN": "South Africa",
    "namePL": "Afryka Poudniowa",
    "cca2": "ZA"
  },
  {
    "flag": "桂",
    "nameEN": "Togo",
    "namePL": "I",
    "cca2": "TG"
  },
  {
    "flag": "",
    "nameEN": "Armenia",
    "namePL": "Armenia",
    "cca2": "AM"
  },
  {
    "flag": "葛",
    "nameEN": "Saint Helena, Ascension and Tristan da Cunha",
    "namePL": "wita Helena, Wniebowstpienie i Tristan da Cunha",
    "cca2": "SH"
  },
  {
    "flag": "",
    "nameEN": "Albania",
    "namePL": "Albania",
    "cca2": "AL"
  },
  {
    "flag": "",
    "nameEN": "Andorra",
    "namePL": "Andora",
    "cca2": "AD"
  },
  {
    "flag": "葛",
    "nameEN": "South Sudan",
    "namePL": "Poudniowy Sudan",
    "cca2": "SS"
  },
  {
    "flag": "",
    "nameEN": "Guernsey",
    "namePL": "Guernsey",
    "cca2": "GG"
  },
  {
    "flag": "",
    "nameEN": "United Arab Emirates",
    "namePL": "Zjednoczone Emiraty Arabskie",
    "cca2": "AE"
  },
  {
    "flag": "",
    "nameEN": "Czechia",
    "namePL": "Czechy",
    "cca2": "CZ"
  },
  {
    "flag": "",
    "nameEN": "Guadeloupe",
    "namePL": "Gwadelupa",
    "cca2": "GP"
  },
  {
    "flag": "",
    "nameEN": "Grenada",
    "namePL": "Grenada",
    "cca2": "GD"
  },
  {
    "flag": "叼",
    "nameEN": "Pakistan",
    "namePL": "Pakistan",
    "cca2": "PK"
  },
  {
    "flag": "火",
    "nameEN": "Vatican City",
    "namePL": "Watykan",
    "cca2": "VA"
  },
  {
    "flag": "拣",
    "nameEN": "Wallis and Futuna",
    "namePL": "Wallis i Futuna",
    "cca2": "WF"
  },
  {
    "flag": "葛",
    "nameEN": "Svalbard and Jan Mayen",
    "namePL": "Svalbard i Jan Mayen",
    "cca2": "SJ"
  },
  {
    "flag": "",
    "nameEN": "Cameroon",
    "namePL": "Kamerun",
    "cca2": "CM"
  },
  {
    "flag": "",
    "nameEN": "Jamaica",
    "namePL": "Jamajka",
    "cca2": "JM"
  },
  {
    "flag": "梆",
    "nameEN": "Comoros",
    "namePL": "Komory",
    "cca2": "KM"
  },
  {
    "flag": "",
    "nameEN": "Falkland Islands",
    "namePL": "Falklandy",
    "cca2": "FK"
  },
  {
    "flag": "桂",
    "nameEN": "Turkmenistan",
    "namePL": "Turkmenia",
    "cca2": "TM"
  },
  {
    "flag": "ю",
    "nameEN": "Brunei",
    "namePL": "Brunei",
    "cca2": "BN"
  },
  {
    "flag": "",
    "nameEN": "Antigua and Barbuda",
    "namePL": "Antigua i Barbuda",
    "cca2": "AG"
  },
  {
    "flag": "",
    "nameEN": "Ghana",
    "namePL": "Ghana",
    "cca2": "GH"
  },
  {
    "flag": "梆",
    "nameEN": "Kuwait",
    "namePL": "Kuwejt",
    "cca2": "KW"
  },
  {
    "flag": "",
    "nameEN": "Eritrea",
    "namePL": "Erytrea",
    "cca2": "ER"
  },
  {
    "flag": "筐",
    "nameEN": "Zimbabwe",
    "namePL": "Zimbabwe",
    "cca2": "ZW"
  },
  {
    "flag": "桂",
    "nameEN": "Tanzania",
    "namePL": "Tanzania",
    "cca2": "TZ"
  },
  {
    "flag": "",
    "nameEN": "Estonia",
    "namePL": "Estonia",
    "cca2": "EE"
  },
  {
    "flag": "ю",
    "nameEN": "Belize",
    "namePL": "Beliz",
    "cca2": "BZ"
  },
  {
    "flag": "葛",
    "nameEN": "Saudi Arabia",
    "namePL": "Arabia Saudyjska",
    "cca2": "SA"
  },
  {
    "flag": "仇",
    "nameEN": "New Zealand",
    "namePL": "Nowa Zelandia",
    "cca2": "NZ"
  },
  {
    "flag": "桂",
    "nameEN": "Turks and Caicos Islands",
    "namePL": "Wyspy Turks i Caicos",
    "cca2": "TC"
  },
  {
    "flag": "",
    "nameEN": "Colombia",
    "namePL": "Kolumbia",
    "cca2": "CO"
  },
  {
    "flag": "拆",
    "nameEN": "Malaysia",
    "namePL": "Malezja",
    "cca2": "MY"
  },
  {
    "flag": "ю",
    "nameEN": "Bermuda",
    "namePL": "Bermudy",
    "cca2": "BM"
  },
  {
    "flag": "",
    "nameEN": "Austria",
    "namePL": "Austria",
    "cca2": "AT"
  },
  {
    "flag": "拣",
    "nameEN": "Samoa",
    "namePL": "Samoa",
    "cca2": "WS"
  },
  {
    "flag": "吼",
    "nameEN": "Uganda",
    "namePL": "Uganda",
    "cca2": "UG"
  },
  {
    "flag": "仇",
    "nameEN": "Nepal",
    "namePL": "Nepal",
    "cca2": "NP"
  },
  {
    "flag": "叼",
    "nameEN": "Paraguay",
    "namePL": "Paragwaj",
    "cca2": "PY"
  },
  {
    "flag": "",
    "nameEN": "Australia",
    "namePL": "Australia",
    "cca2": "AU"
  },
  {
    "flag": "",
    "nameEN": "Faroe Islands",
    "namePL": "Wyspy Owcze",
    "cca2": "FO"
  },
  {
    "flag": "",
    "nameEN": "United Kingdom",
    "namePL": "Zjednoczone Kr贸lestwo",
    "cca2": "GB"
  },
  {
    "flag": "桂",
    "nameEN": "Tokelau",
    "namePL": "Tokelau",
    "cca2": "TK"
  },
  {
    "flag": "筐",
    "nameEN": "Zambia",
    "namePL": "Zambia",
    "cca2": "ZM"
  },
  {
    "flag": "别",
    "nameEN": "Saint Lucia",
    "namePL": "wita Lucia",
    "cca2": "LC"
  },
  {
    "flag": "",
    "nameEN": "Isle of Man",
    "namePL": "Wyspa Man",
    "cca2": "IM"
  },
  {
    "flag": "梆",
    "nameEN": "Kyrgyzstan",
    "namePL": "Kirgistan",
    "cca2": "KG"
  },
  {
    "flag": "叼",
    "nameEN": "French Polynesia",
    "namePL": "Polinezja Francuska",
    "cca2": "PF"
  },
  {
    "flag": "",
    "nameEN": "Ecuador",
    "namePL": "Ekwador",
    "cca2": "EC"
  },
  {
    "flag": "",
    "nameEN": "Hong Kong",
    "namePL": "Hongkong",
    "cca2": "HK"
  },
  {
    "flag": "拆",
    "nameEN": "Northern Mariana Islands",
    "namePL": "Mariany P贸nocne",
    "cca2": "MP"
  },
  {
    "flag": "桂",
    "nameEN": "Timor-Leste",
    "namePL": "Timor Wschodni",
    "cca2": "TL"
  },
  {
    "flag": "火",
    "nameEN": "Saint Vincent and the Grenadines",
    "namePL": "Saint Vincent i Grenadyny",
    "cca2": "VC"
  },
  {
    "flag": "火",
    "nameEN": "Vietnam",
    "namePL": "Wietnam",
    "cca2": "VN"
  },
  {
    "flag": "",
    "nameEN": "Heard Island and McDonald Islands",
    "namePL": "Wyspy Heard i McDonalda",
    "cca2": "HM"
  },
  {
    "flag": "",
    "nameEN": "Ireland",
    "namePL": "Irlandia",
    "cca2": "IE"
  },
  {
    "flag": "",
    "nameEN": "Finland",
    "namePL": "Finlandia",
    "cca2": "FI"
  },
  {
    "flag": "",
    "nameEN": "Japan",
    "namePL": "Japonia",
    "cca2": "JP"
  },
  {
    "flag": "",
    "nameEN": "British Indian Ocean Territory",
    "namePL": "Brytyjskie Terytorium Oceanu Indyjskiego",
    "cca2": "IO"
  },
  {
    "flag": "仇",
    "nameEN": "Norfolk Island",
    "namePL": "Wyspa Norfolk",
    "cca2": "NF"
  },
  {
    "flag": "ю",
    "nameEN": "Brazil",
    "namePL": "Brazylia",
    "cca2": "BR"
  },
  {
    "flag": "拆",
    "nameEN": "Montenegro",
    "namePL": "Czarnog贸ra",
    "cca2": "ME"
  },
  {
    "flag": "",
    "nameEN": "Guyana",
    "namePL": "Gujana",
    "cca2": "GY"
  },
  {
    "flag": "葛",
    "nameEN": "Slovakia",
    "namePL": "Sowacja",
    "cca2": "SK"
  },
  {
    "flag": "",
    "nameEN": "Guam",
    "namePL": "Guam",
    "cca2": "GU"
  },
  {
    "flag": "拆",
    "nameEN": "Monaco",
    "namePL": "Monako",
    "cca2": "MC"
  },
  {
    "flag": "",
    "nameEN": "China",
    "namePL": "Chiny",
    "cca2": "CN"
  },
  {
    "flag": "",
    "nameEN": "Aruba",
    "namePL": "Aruba",
    "cca2": "AW"
  },
  {
    "flag": "别",
    "nameEN": "Laos",
    "namePL": "Laos",
    "cca2": "LA"
  },
  {
    "flag": "火",
    "nameEN": "Venezuela",
    "namePL": "Wenezuela",
    "cca2": "VE"
  },
  {
    "flag": "叼",
    "nameEN": "Palestine",
    "namePL": "Palestyna",
    "cca2": "PS"
  },
  {
    "flag": "葛",
    "nameEN": "Sint Maarten",
    "namePL": "Sint Maarten",
    "cca2": "SX"
  },
  {
    "flag": "",
    "nameEN": "Hungary",
    "namePL": "Wgry",
    "cca2": "HU"
  },
  {
    "flag": "",
    "nameEN": "Germany",
    "namePL": "Niemcy",
    "cca2": "DE"
  },
  {
    "flag": "桂",
    "nameEN": "Tonga",
    "namePL": "Tonga",
    "cca2": "TO"
  },
  {
    "flag": "",
    "nameEN": "Iraq",
    "namePL": "Irak",
    "cca2": "IQ"
  },
  {
    "flag": "桂",
    "nameEN": "Thailand",
    "namePL": "Tajlandia",
    "cca2": "TH"
  },
  {
    "flag": "桂",
    "nameEN": "Tunisia",
    "namePL": "Tunezja",
    "cca2": "TN"
  },
  {
    "flag": "ю",
    "nameEN": "Burundi",
    "namePL": "Burundi",
    "cca2": "BI"
  },
  {
    "flag": "",
    "nameEN": "Switzerland",
    "namePL": "Szwajcaria",
    "cca2": "CH"
  },
  {
    "flag": "",
    "nameEN": "land Islands",
    "namePL": "Wyspy Alandzkie",
    "cca2": "AX"
  },
  {
    "flag": "ю",
    "nameEN": "Benin",
    "namePL": "Benin",
    "cca2": "BJ"
  },
  {
    "flag": "梆",
    "nameEN": "Kiribati",
    "namePL": "Kiribati",
    "cca2": "KI"
  },
  {
    "flag": "葛",
    "nameEN": "Sudan",
    "namePL": "Sudan",
    "cca2": "SD"
  },
  {
    "flag": "吼",
    "nameEN": "Uzbekistan",
    "namePL": "Uzbekistan",
    "cca2": "UZ"
  },
  {
    "flag": "ю",
    "nameEN": "Burkina Faso",
    "namePL": "Burkina Faso",
    "cca2": "BF"
  },
  {
    "flag": "别",
    "nameEN": "Sri Lanka",
    "namePL": "Sri Lanka",
    "cca2": "LK"
  },
  {
    "flag": "仇",
    "nameEN": "Niger",
    "namePL": "Niger",
    "cca2": "NE"
  },
  {
    "flag": "葛",
    "nameEN": "Suriname",
    "namePL": "Surinam",
    "cca2": "SR"
  },
  {
    "flag": "",
    "nameEN": "Angola",
    "namePL": "Angola",
    "cca2": "AO"
  },
  {
    "flag": "",
    "nameEN": "Ivory Coast",
    "namePL": "Wybrze偶e Koci Soniowej",
    "cca2": "CI"
  },
  {
    "flag": "梆",
    "nameEN": "Cayman Islands",
    "namePL": "Kajmany",
    "cca2": "KY"
  },
  {
    "flag": "别",
    "nameEN": "Lesotho",
    "namePL": "Lesoto",
    "cca2": "LS"
  },
  {
    "flag": "拆",
    "nameEN": "Montserrat",
    "namePL": "Montserrat",
    "cca2": "MS"
  },
  {
    "flag": "拆",
    "nameEN": "Malawi",
    "namePL": "Malawi",
    "cca2": "MW"
  },
  {
    "flag": "ю",
    "nameEN": "Bahamas",
    "namePL": "Bahamy",
    "cca2": "BS"
  },
  {
    "flag": "",
    "nameEN": "Guinea-Bissau",
    "namePL": "Gwinea Bissau",
    "cca2": "GW"
  },
  {
    "flag": "ю",
    "nameEN": "Saint Barth茅lemy",
    "namePL": "wity Barth茅lemy",
    "cca2": "BL"
  },
  {
    "flag": "葛",
    "nameEN": "Seychelles",
    "namePL": "Seszele",
    "cca2": "SC"
  },
  {
    "flag": "",
    "nameEN": "Christmas Island",
    "namePL": "Wyspa Bo偶ego Narodzenia",
    "cca2": "CX"
  },
  {
    "flag": "",
    "nameEN": "Micronesia",
    "namePL": "Mikronezja",
    "cca2": "FM"
  },
  {
    "flag": "ю",
    "nameEN": "Belgium",
    "namePL": "Belgia",
    "cca2": "BE"
  },
  {
    "flag": "",
    "nameEN": "French Guiana",
    "namePL": "Gujana Francuska",
    "cca2": "GF"
  },
  {
    "flag": "桂",
    "nameEN": "Taiwan",
    "namePL": "Tajwan",
    "cca2": "TW"
  },
  {
    "flag": "梆",
    "nameEN": "South Korea",
    "namePL": "Korea Poudniowa",
    "cca2": "KR"
  },
  {
    "flag": "",
    "nameEN": "Denmark",
    "namePL": "Dania",
    "cca2": "DK"
  },
  {
    "flag": "答",
    "nameEN": "Oman",
    "namePL": "Oman",
    "cca2": "OM"
  },
  {
    "flag": "叼",
    "nameEN": "Pitcairn Islands",
    "namePL": "Wyspy Pitcairn",
    "cca2": "PN"
  },
  {
    "flag": "葛",
    "nameEN": "Senegal",
    "namePL": "Senegal",
    "cca2": "SN"
  }
]
